{
    "links": {
        "self": "http://www.neowsapp.com/rest/v1/neo/3892650?api_key=iIulBulltgU6a56xZRHN4H3l9WmuAYTsLGpBGhQ2"
    },
    "id": "3892650",
    "neo_reference_id": "3892650",
    "name": "(2019 VY1)",
    "designation": "2019 VY1",
    "nasa_jpl_url": "http://ssd.jpl.nasa.gov/sbdb.cgi?sstr=3892650",
    "absolute_magnitude_h": 21.9,
    "estimated_diameter": {
        "kilometers": {
            "estimated_diameter_min": 0.1108038821,
            "estimated_diameter_max": 0.2477650126
        },
        "meters": {
            "estimated_diameter_min": 110.8038821264,
            "estimated_diameter_max": 247.7650126055
        },
        "miles": {
            "estimated_diameter_min": 0.068850319,
            "estimated_diameter_max": 0.1539539936
        },
        "feet": {
            "estimated_diameter_min": 363.5298086356,
            "estimated_diameter_max": 812.8773639568
        }
    },
    "is_potentially_hazardous_asteroid": false,
    "close_approach_data": [
        {
            "close_approach_date": "2019-10-21",
            "close_approach_date_full": "2019-Oct-21 16:17",
            "epoch_date_close_approach": 1571674620000,
            "relative_velocity": {
                "kilometers_per_second": "17.4505472401",
                "kilometers_per_hour": "62821.9700643575",
                "miles_per_hour": "39035.1291213781"
            },
            "miss_distance": {
                "astronomical": "0.1133213148",
                "lunar": "44.0819914572",
                "kilometers": "16952627.319679476",
                "miles": "10533874.1542137288"
            },
            "orbiting_body": "Earth"
        }
    ],
    "orbital_data": {
        "orbit_id": "4",
        "orbit_determination_date": "2020-05-10 06:02:06",
        "first_observation_date": "2019-11-02",
        "last_observation_date": "2019-11-25",
        "data_arc_in_days": 23,
        "observations_used": 42,
        "orbit_uncertainty": "8",
        "minimum_orbit_intersection": ".0782481",
        "jupiter_tisserand_invariant": "3.677",
        "epoch_osculation": "2458791.5",
        "eccentricity": ".5879119344253015",
        "semi_major_axis": "1.926181160254621",
        "inclination": "7.547744701640466",
        "ascending_node_longitude": "345.6319743898717",
        "orbital_period": "976.4367645849401",
        "perihelion_distance": ".7937562682757551",
        "perihelion_argument": "335.1414089776836",
        "aphelion_distance": "3.058606052233487",
        "perihelion_time": "2458736.531432471679",
        "mean_anomaly": "20.26622207184841",
        "mean_motion": ".3686874696417514",
        "equinox": "J2000",
        "orbit_class": {
            "orbit_class_type": "APO",
            "orbit_class_description": "Near-Earth asteroid orbits which cross the Earth’s orbit similar to that of 1862 Apollo",
            "orbit_class_range": "a (semi-major axis) > 1.0 AU; q (perihelion) < 1.017 AU"
        }
    },
    "is_sentry_object": false
}